[{"OBJECT_NAME":"STARLINK-4535","OBJECT_ID":"2022-097E","EPOCH":"2026-03-09T10:33:41.779296","MEAN_MOTION":15.0884065,"ECCENTRICITY":0.0001495,"INCLINATION":53.217,"RA_OF_ASC_NODE":125.2418,"ARG_OF_PERICENTER":92.4404,"MEAN_ANOMALY":267.676,"EPHEMERIS_TYPE":0,"CLASSIFICATION_TYPE":"U","NORAD_CAT_ID":53392,"ELEMENT_SET_NO":999,"REV_AT_EPOCH":19863,"BSTAR":-7.4895856e-5,"MEAN_MOTION_DOT":-1.48e-5,"MEAN_MOTION_DDOT":0},{"OBJECT_NAME":"OBJECT H","OBJECT_ID":"2025-313H","EPOCH":"2026-03-09T22:36:06.294528","MEAN_MOTION":15.02722765,"ECCENTRICITY":0.0085698,"INCLINATION":97.296,"RA_OF_ASC_NODE":142.3052,"ARG_OF_PERICENTER":313.0136,"MEAN_ANOMALY":46.393,"EPHEMERIS_TYPE":0,"CLASSIFICATION_TYPE":"U","NORAD_CAT_ID":67255,"ELEMENT_SET_NO":999,"REV_AT_EPOCH":1072,"BSTAR":0.0002424576,"MEAN_MOTION_DOT":3.444e-5,"MEAN_MOTION_DDOT":0}]
